ORBITAL FACTORY 2 (OF-2)
1 45113U 19071C   20274.27291793  .00004147  00000-0  13636-3 0  9995
2 45113  51.6419 217.0675 0013581  75.8398 284.4092 15.33728895 37211
M2 PATHFINDER           
1 45727U 20037E   20274.55279790 -.00000078  00000-0 -22779-5 0  9995
2 45727  97.7040  92.2270 0012057 314.1340  45.8915 14.91230471 13689
